{
  "type": "FeatureCollection",
  "features": [
    {
      "type": "Feature",
      "properties": {
        "norad_id": 66596,
        "name": "STARLINK-35811",
        "group": "last-30-days",
        "lat": -22.885797465363154,
        "lon": 88.08677212602596,
        "alt_km": 344.86523966788627,
        "timestamp": "2025-12-04T13:51:59.228240+00:00",
        "meta_object_name": "STARLINK-35811",
        "meta_object_id": "2025-270J",
        "meta_epoch": "2025-12-04T05:21:01.628928",
        "meta_mean_motion": 15.75216339,
        "meta_eccentricity": 0.00024176,
        "meta_inclination": 42.9986,
        "meta_ra_of_asc_node": 243.3027,
        "meta_arg_of_pericenter": 252.3696,
        "meta_mean_anomaly": 107.6909,
        "meta_ephemeris_type": 0,
        "meta_classification_type": "U",
        "meta_norad_cat_id": 66596,
        "meta_element_set_no": 999,
        "meta_rev_at_epoch": 312,
        "meta_bstar": 0.00030397463,
        "meta_mean_motion_dot": 0.00046843,
        "meta_mean_motion_ddot": 0,
        "tle_line1": "1 66596U 25270J   25338.22293552  .00046843  00000+0  30397-3 0  9998",
        "tle_line2": "2 66596  42.9986 243.3027 0002417 252.3696 107.6909 15.75216339  3120"
      },
      "geometry": {
        "type": "Point",
        "coordinates": [
          88.08677212602596,
          -22.885797465363154
        ]
      }
    },
    {
      "type": "Feature",
      "properties": {
        "norad_id": 66597,
        "name": "STARLINK-35820",
        "group": "last-30-days",
        "lat": -33.80702145511981,
        "lon": 107.04138524943967,
        "alt_km": 338.4126001691866,
        "timestamp": "2025-12-04T13:51:59.228250+00:00",
        "meta_object_name": "STARLINK-35820",
        "meta_object_id": "2025-270K",
        "meta_epoch": "2025-12-04T00:43:40.956960",
        "meta_mean_motion": 15.80114671,
        "meta_eccentricity": 0.00202858,
        "meta_inclination": 42.9984,
        "meta_ra_of_asc_node": 244.4384,
        "meta_arg_of_pericenter": 309.2244,
        "meta_mean_anomaly": 50.6826,
        "meta_ephemeris_type": 0,
        "meta_classification_type": "U",
        "meta_norad_cat_id": 66597,
        "meta_element_set_no": 999,
        "meta_rev_at_epoch": 309,
        "meta_bstar": -0.014154464,
        "meta_mean_motion_dot": -0.02411074,
        "meta_mean_motion_ddot": 0,
        "tle_line1": "1 66597U 25270K   25338.03033515 -.02411074  00000+0 -14154-1 0  9996",
        "tle_line2": "2 66597  42.9984 244.4384 0020285 309.2244  50.6826 15.80114671  3094"
      },
      "geometry": {
        "type": "Point",
        "coordinates": [
          107.04138524943967,
          -33.80702145511981
        ]
      }
    },
    {
      "type": "Feature",
      "properties": {
        "norad_id": 66598,
        "name": "STARLINK-35981",
        "group": "last-30-days",
        "lat": -26.263171580540483,
        "lon": 93.10996870150773,
        "alt_km": 346.1371338250947,
        "timestamp": "2025-12-04T13:51:59.228260+00:00",
        "meta_object_name": "STARLINK-35981",
        "meta_object_id": "2025-270L",
        "meta_epoch": "2025-12-04T05:19:33.192480",
        "meta_mean_motion": 15.75308926,
        "meta_eccentricity": 0.00028269,
        "meta_inclination": 42.999,
        "meta_ra_of_asc_node": 243.2951,
        "meta_arg_of_pericenter": 278.7151,
        "meta_mean_anomaly": 81.3398,
        "meta_ephemeris_type": 0,
        "meta_classification_type": "U",
        "meta_norad_cat_id": 66598,
        "meta_element_set_no": 999,
        "meta_rev_at_epoch": 285,
        "meta_bstar": -0.0027988896,
        "meta_mean_motion_dot": -0.00414993,
        "meta_mean_motion_ddot": 0,
        "tle_line1": "1 66598U 25270L   25338.22191195 -.00414993  00000+0 -27989-2 0  9999",
        "tle_line2": "2 66598  42.9990 243.2951 0002826 278.7151  81.3398 15.75308926  2857"
      },
      "geometry": {
        "type": "Point",
        "coordinates": [
          93.10996870150773,
          -26.263171580540483
        ]
      }
    },
    {
      "type": "Feature",
      "properties": {
        "norad_id": 66599,
        "name": "STARLINK-35930",
        "group": "last-30-days",
        "lat": -26.11880666472034,
        "lon": 92.88304426635254,
        "alt_km": 347.0845998080931,
        "timestamp": "2025-12-04T13:51:59.228275+00:00",
        "meta_object_name": "STARLINK-35930",
        "meta_object_id": "2025-270M",
        "meta_epoch": "2025-12-04T00:45:37.693728",
        "meta_mean_motion": 15.75348253,
        "meta_eccentricity": 0.00019861,
        "meta_inclination": 42.9984,
        "meta_ra_of_asc_node": 244.4479,
        "meta_arg_of_pericenter": 267.8069,
        "meta_mean_anomaly": 92.2573,
        "meta_ephemeris_type": 0,
        "meta_classification_type": "U",
        "meta_norad_cat_id": 66599,
        "meta_element_set_no": 999,
        "meta_rev_at_epoch": 298,
        "meta_bstar": -0.0039524111,
        "meta_mean_motion_dot": -0.00575796,
        "meta_mean_motion_ddot": 0,
        "tle_line1": "1 66599U 25270M   25338.03168627 -.00575796  00000+0 -39524-2 0  9990",
        "tle_line2": "2 66599  42.9984 244.4479 0001986 267.8069  92.2573 15.75348253  2989"
      },
      "geometry": {
        "type": "Point",
        "coordinates": [
          92.88304426635254,
          -26.11880666472034
        ]
      }
    },
    {
      "type": "Feature",
      "properties": {
        "norad_id": 66600,
        "name": "STARLINK-35980",
        "group": "last-30-days",
        "lat": -33.560240858367855,
        "lon": 106.49091906720732,
        "alt_km": 333.29656790663284,
        "timestamp": "2025-12-04T13:51:59.228286+00:00",
        "meta_object_name": "STARLINK-35980",
        "meta_object_id": "2025-270N",
        "meta_epoch": "2025-12-04T03:46:22.938816",
        "meta_mean_motion": 15.79349544,
        "meta_eccentricity": 0.00188251,
        "meta_inclination": 43.0002,
        "meta_ra_of_asc_node": 243.6684,
        "meta_arg_of_pericenter": 318.1688,
        "meta_mean_anomaly": 41.7743,
        "meta_ephemeris_type": 0,
        "meta_classification_type": "U",
        "meta_norad_cat_id": 66600,
        "meta_element_set_no": 999,
        "meta_rev_at_epoch": 290,
        "meta_bstar": 0.0025460562,
        "meta_mean_motion_dot": 0.00507436,
        "meta_mean_motion_ddot": 0,
        "tle_line1": "1 66600U 25270N   25338.15720994  .00507436  00000+0  25461-2 0  9996",
        "tle_line2": "2 66600  43.0002 243.6684 0018825 318.1688  41.7743 15.79349544  2909"
      },
      "geometry": {
        "type": "Point",
        "coordinates": [
          106.49091906720732,
          -33.560240858367855
        ]
      }
    },
    {
      "type": "Feature",
      "properties": {
        "norad_id": 66601,
        "name": "STARLINK-35978",
        "group": "last-30-days",
        "lat": -28.486014416070383,
        "lon": 96.74216488940819,
        "alt_km": 342.49756186382365,
        "timestamp": "2025-12-04T13:51:59.228296+00:00",
        "meta_object_name": "STARLINK-35978",
        "meta_object_id": "2025-270P",
        "meta_epoch": "2025-12-04T02:15:56.284416",
        "meta_mean_motion": 15.75298164,
        "meta_eccentricity": 0.00071106,
        "meta_inclination": 42.9977,
        "meta_ra_of_asc_node": 244.0577,
        "meta_arg_of_pericenter": 214.9985,
        "meta_mean_anomaly": 145.0417,
        "meta_ephemeris_type": 0,
        "meta_classification_type": "U",
        "meta_norad_cat_id": 66601,
        "meta_element_set_no": 999,
        "meta_rev_at_epoch": 283,
        "meta_bstar": -0.0021837609,
        "meta_mean_motion_dot": -0.00327668,
        "meta_mean_motion_ddot": 0,
        "tle_line1": "1 66601U 25270P   25338.09440144 -.00327668  00000+0 -21838-2 0  9999",
        "tle_line2": "2 66601  42.9977 244.0577 0007110 214.9985 145.0417 15.75298164  2838"
      },
      "geometry": {
        "type": "Point",
        "coordinates": [
          96.74216488940819,
          -28.486014416070383
        ]
      }
    },
    {
      "type": "Feature",
      "properties": {
        "norad_id": 66602,
        "name": "STARLINK-36050",
        "group": "last-30-days",
        "lat": -41.04903635904374,
        "lon": 130.21484793150054,
        "alt_km": 284.48722900878056,
        "timestamp": "2025-12-04T13:51:59.228306+00:00",
        "meta_object_name": "STARLINK-36050",
        "meta_object_id": "2025-270Q",
        "meta_epoch": "2025-12-03T23:11:57.245856",
        "meta_mean_motion": 15.81066635,
        "meta_eccentricity": 0.00264193,
        "meta_inclination": 42.9973,
        "meta_ra_of_asc_node": 244.8203,
        "meta_arg_of_pericenter": 271.6989,
        "meta_mean_anomaly": 88.0856,
        "meta_ephemeris_type": 0,
        "meta_classification_type": "U",
        "meta_norad_cat_id": 66602,
        "meta_element_set_no": 999,
        "meta_rev_at_epoch": 287,
        "meta_bstar": 0.03628424,
        "meta_mean_motion_dot": 0.09497794,
        "meta_mean_motion_ddot": 0,
        "tle_line1": "1 66602U 25270Q   25337.96663479  .09497794  00000+0  36284-1 0  9998",
        "tle_line2": "2 66602  42.9973 244.8203 0026419 271.6989  88.0856 15.81066635  2876"
      },
      "geometry": {
        "type": "Point",
        "coordinates": [
          130.21484793150054,
          -41.04903635904374
        ]
      }
    }
  ]
}